#aV2015 11  2  0  0  0.00000000     288 DD+AD WGS84 FIT  NGA
## 1869  86400.00000000   300.00000000 57328 0.0000000000000
+   31     1  2  3  4  5  6  7  8  9 11 12 13 14 15 16 17 18
+         19 20 21 22 23 24 25 26 27 28 29 30 31 32  0  0  0
+          0  0  0  0  0  0  0  0  0  0  0  0  0  0  0  0  0
+          0  0  0  0  0  0  0  0  0  0  0  0  0  0  0  0  0
+          0  0  0  0  0  0  0  0  0  0  0  0  0  0  0  0  0
++         2  2  2  2  2  2  2  2  2  2  2  2  2  2  2  2  2
++         2  2  2  2  2  2  2  2  2  2  2  2  2  2  0  0  0
++         0  0  0  0  0  0  0  0  0  0  0  0  0  0  0  0  0
++         0  0  0  0  0  0  0  0  0  0  0  0  0  0  0  0  0
++         0  0  0  0  0  0  0  0  0  0  0  0  0  0  0  0  0
%c cc cc ccc ccc cccc cccc cccc cccc ccccc ccccc ccccc ccccc
%c cc cc ccc ccc cccc cccc cccc cccc ccccc ccccc ccccc ccccc
%f  0.0000000  0.000000000  0.00000000000  0.000000000000000
%f  0.0000000  0.000000000  0.00000000000  0.000000000000000
%i    0    0    0    0      0      0      0      0         0
%i    0    0    0    0      0      0      0      0         0
/*      NGA, ST. LOUIS,MO.                                  
/*   EPHEMERIS COMPUTED FROM 2 DAYS OF DATA                 
/*   EPOCHA v2.4 SMOOTHER                                   
/*   G1762 IERS2010 SATAF SATAPC                            
*  2015 11  2 15 15  0.00000000
P  1  22796.753172  13668.077386   2139.375664      3.618905                    
V  1    860.604309   3700.367251 -31510.666936      0.007904                    
P  2  -7554.827057 -19377.571665  17147.825619    594.677134                    
V  2  18697.101352   9550.672579  19044.807422      0.011043                    
P  3  13184.928102  11686.244937  19871.697690     16.792604                    
V  3  -2849.627385  25103.860391 -12894.472116     -0.026383                    
P  4  18357.378464  18092.739490  -7294.419859    -40.791111                    
V  4  -8986.558158  -2215.722534 -29302.782516     -0.053265                    
P  5  -2722.232769 -25680.371310  -5815.731329   -178.780286                    
V  5   3724.490719  -7156.649648  30386.408676      0.038518                    
P  6   5676.344684 -14318.587326  21634.905646     87.959538                    
V  6  23046.896154  14956.697965   3842.242023      0.068370                    
P  7  21636.528089   2333.484408 -15362.913098    481.409871                    
V  7  15052.398504  12605.163079  22541.740313     -0.009610                    
P  8  12452.888507  10228.229043 -21062.726992    -10.984260                    
V  8 -23720.915572  12615.628452  -7889.275939     -0.014338                    
P  9  24717.856607  -7085.971539   6671.327512      4.691840                    
V  9  -6339.087790   6299.168071  30121.575993      0.050421                    
P 11  23092.584928  11419.223458  -7172.809756   -613.838371                    
V 11  -9293.763203   2336.527152 -28323.879894     -0.021913                    
P 12 -10869.266334 -14908.022169  19082.319021    342.067821                    
V 12   3668.420391 -24046.508706 -16400.119043      0.031951                    
P 13  -2056.556592 -15099.357759 -21895.095622   -161.325110                    
V 13  25890.820295  -9075.476012   3750.251978     -0.028112                    
P 14 -20127.249815  14803.790415   9036.715641     24.243946                    
V 14 -11287.486695   1840.003516 -29109.730860     -0.024438                    
P 15 -14904.545755  -8901.873831 -20285.122858   -280.071223                    
V 15  21798.333399 -13368.243154  -9864.503091     -0.019705                    
P 16    348.642883  25734.111383  -5786.870480    -70.427365                    
V 16  -3045.571220   6952.934748  31523.898433      0.036860                    
P 17  19624.588231 -15375.000705   9151.953632   -192.783560                    
V 17  11203.408010  -2422.464598 -29280.790060     -0.010902                    
P 18 -15027.416298   8858.994371 -19447.886546    448.959456                    
V 18   -616.611192 -26067.245092 -11388.007829      0.037718                    
P 19  25082.924893  -2802.937817  -9216.916790   -522.283657                    
V 19  -9836.925596   5728.122648 -28801.271675     -0.004603                    
P 20 -13577.233260 -14389.526683 -17845.502766    367.912500                    
V 20   1879.787224 -22517.735149  16950.559923      0.029279                    
P 21 -20223.469866   1621.148058 -16589.025136   -490.849029                    
V 21 -17655.903364 -13965.535552  19023.981519     -0.024956                    
P 22  -9786.730805  21496.073253 -11736.326710    406.771522                    
V 22  -2880.992760 -15552.367794 -25745.565408      0.034447                    
P 23  20536.928729   3453.480873  16897.819941   -142.254678                    
V 23 -18100.615461  10795.195427  19560.458535     -0.020996                    
P 24 -22135.492235 -14828.878386   -732.093788     -7.326877                    
V 24   2347.882994  -2019.262188 -31421.197393     -0.006882                    
P 25 -14782.552986   -340.671605  21960.615633    -61.491137                    
V 25   1750.308683 -28021.105043    903.472753     -0.056411                    
P 26  -5026.898449  25605.764236   4916.917529   -106.870615                    
V 26  -2373.323659  -6401.897164  30940.128533     -0.145982                    
P 27    336.750398  16052.841313 -21160.459484     32.576181                    
V 27 -24323.753878  11294.151737   8313.047586      0.031478                    
P 28  11898.042231 -18672.134410 -13981.672220    478.683208                    
V 28   -922.483878  18879.502155 -24964.860709      0.025307                    
P 29 -24640.021876   3785.400368   9126.093130    642.613137                    
V 29   9781.681875  -6536.644733  29198.264672      0.017846                    
P 30  14604.702129  -7422.502318 -20919.947794     50.832477                    
V 30  20505.449982  16916.422150   8232.119347      0.058558                    
P 31  -5184.361128  14487.994992  21737.395422    296.836610                    
V 31 -22490.532230 -15491.883103   5327.737655     -0.014477                    
P 32   6194.603879  22518.458943  13077.227927      4.572168                    
V 32  -4615.684651  16027.502964 -24758.461292      0.116906                    
EOF
